NUSAT-1 (FRESCO)        
1 41557U 16033B   22323.96170912  .00018026  00000+0  46083-3 0  9992
2 41557  97.3897  62.3719 0010303 174.9270 309.4869 15.39449587361264
BEESAT-4                
1 41619U 16040W   22323.11794524  .00018130  00000+0  51334-3 0  9998
2 41619  97.1972   9.9024 0006404 283.8131  76.2401 15.36315338344427
CAS-2T & KS-1Q          
1 41847U 16066G   22323.43228435  .00000933  00000+0  14758-3 0  9998
2 41847  98.5335  27.8195 0363722 106.1153 258.0391 14.38910355316637
NAYIF-1 (EO-88)         
1 42017U 17008BX  22323.43175922  .00025688  00000+0  62446-3 0  9998
2 42017  97.2509  27.6939 0005085  60.4937 299.6816 15.40952112320883
ZHUHAI-1 02 (CAS-4B)    
1 42759U 17034B   22323.97235954  .00004773  00000+0  27569-3 0  9990
2 42759  43.0167 194.7560 0009520 200.7567 250.3472 15.13284392299905
ZHUHAI-1 01 (CAS-4A)    
1 42761U 17034D   22323.53366669  .00004743  00000+0  27336-3 0  9992
2 42761  43.0174 195.8520 0009948 199.5527 232.2817 15.13369675299842
MAX VALIER SAT          
1 42778U 17036P   22323.83499722  .00009603  00000+0  33284-3 0  9991
2 42778  97.1879 359.7015 0011529 126.9592 233.2707 15.29963266300638
RADFXSAT (FOX-1B)       
1 43017U 17073E   22323.66983531  .00004639  00000+0  34262-3 0  9997
2 43017  97.6544 211.4478 0245687  39.3198 322.5572 14.82620900270102
FOX-1D (AO-92)          
1 43137U 18004AC  22323.46946031  .00013722  00000+0  43238-3 0  9993
2 43137  97.3554  37.4288 0007592 161.3197 198.8325 15.32991503270065
DIWATA-2B               
1 43678U 18084H   22323.40633328  .00001274  00000+0  12985-3 0  9991
2 43678  97.9922  98.7261 0010800 129.5606 230.6587 14.92492944220967
ES'HAIL 2               
1 43700U 18090A   22323.83831002  .00000165  00000+0  00000+0 0  9999
2 43700   0.0201 288.0368 0001157 326.8006 131.6257  1.00269805 14587
FOX-1CLIFF (AO-95)      
1 43770U 18099N   22323.61832489  .00002143  00000+0  18933-3 0  9997
2 43770  97.6047  25.8640 0015158 112.5180 247.7649 14.97300585216223
ITASAT 1                
1 43786U 18099AE  22323.80198268  .00002783  00000+0  24412-3 0  9994
2 43786  97.6075  27.0370 0016450 105.7542 254.5495 14.97330484216290
JY1SAT (JO-97)          
1 43803U 18099AX  22323.62646884  .00002505  00000+0  21640-3 0  9998
2 43803  97.6030  26.6821 0015376 104.6590 255.6338 14.98021367216290
UWE-4                   
1 43880U 18111E   22323.17812744  .00002752  00000+0  23061-3 0  9991
2 43880  97.6580 226.7641 0011107 151.5909 208.5922 14.99180135212877
NEXUS (FO-99)           
1 43937U 19003F   22323.04745096  .00015841  00000+0  46405-3 0  9996
2 43937  97.1157 350.6513 0017046 325.5352  34.4785 15.35147681213653
PSAT2 (NO-104)          
1 44354U 19036R   22323.88456599  .00089418 -46533-5  47514-3 0  9996
2 44354  28.5190 165.2094 0152865 309.2496  49.4632 15.63836702188819
JAISAT-1                
1 44419U 19038F   22323.35725313  .00011304  00000+0  52131-3 0  9997
2 44419  97.6545 295.1609 0016541 322.4535  37.5543 15.20303886186562
DUCHIFAT-3              
1 44854U 19089C   22323.20380244  .00005212  00000+0  39210-3 0  9994
2 44854  36.9639 262.2027 0007062  26.6837 118.1940 15.02354761161209
CAS-6 (TIANQIN 1)       
1 44881U 19093C   22323.48338775  .00000682  00000+0  92594-4 0  9992
2 44881  97.8819  40.3904 0016007  45.4156 314.8353 14.81936151157737
RS-44 & BREEZE-KM R/B   
1 44909U 19096E   22323.22583811  .00000036  00000+0  10652-3 0  9998
2 44909  82.5177 127.4671 0216696 318.0545  40.4130 12.79716662135303
ORBITAL FACTORY 2 (OF-2)
1 45113U 19071C   22323.51727248  .00044053  00000+0  60745-3 0  9990
2 45113  51.6354  11.3942 0011354  20.7708 339.3743 15.56688255157420
HUSKYSAT-1 (HO-107)     
1 45119U 19071J   22323.54591894  .00037345  00000+0  56791-3 0  9997
2 45119  51.6365  13.0508 0011024  17.8047 342.3328 15.54104912157392
BY70-2                  
1 45857U 20042B   22323.51053735  .00008654  00000+0  10925-2 0  9999
2 45857  97.9448  38.9964 0009256 336.1898  23.8744 14.82123832128408
SALSAT                  
1 46495U 20068K   22323.62585920  .00002184  00000+0  15655-3 0  9992
2 46495  97.7456 265.1538 0018159 108.9607 251.3589 15.05323352117521
BY70-3                  
1 46839U 20079N   22323.50610843  .00039507  00000+0  67264-3 0  9998
2 46839  97.1811  34.2151 0005522 128.2427 346.2395 15.51280500114190
RADFXSAT-2 (AO-109)     
1 47311U 21002C   22323.50500916  .00010179  00000+0  36790-3 0  9994
2 47311  60.6824 137.4505 0037780  71.8780 288.6418 15.28377389102132
UVSQ-SAT                
1 47438U 21006AB  22323.13786009  .00006909  00000+0  34445-3 0  9997
2 47438  97.4187  18.9901 0012934  97.4089 262.8615 15.17780111100720
DIY-1 (ARDUIQUBE)       
1 47963U 21022AH  22323.20540993  .00026466  00000+0  12352-2 0  9998
2 47963  97.5174 223.1722 0013622 330.7821  29.2650 15.19732377 90391
XW-3 (CAS-9)            
1 50466U 21131B   22323.83741504  .00000176  00000+0  71903-4 0  9990
2 50466  98.5704  40.9343 0005187  57.1300 303.0386 14.38578585 47251
TEVEL-3                 
1 50988U 22002E   22323.47836866  .00008573  00000+0  43841-3 0  9991
2 50988  97.4644  27.9400 0007974 242.8858 242.3967 15.16867802 46896
TEVEL-8                 
1 50989U 22002F   22323.48700075  .00008662  00000+0  44357-3 0  9997
2 50989  97.4658  27.9840 0008102 240.9152 233.9192 15.16813191 46898
TEVEL-5                 
1 50998U 22002Q   22323.44899845  .00009186  00000+0  46214-3 0  9993
2 50998  97.4637  28.1037 0009383 236.3530 253.9508 15.17410232 46902
TEVEL-6                 
1 50999U 22002R   22323.44816322  .00009245  00000+0  46502-3 0  9999
2 50999  97.4639  28.0995 0009237 237.3470 253.0195 15.17416464 46905
TEVEL-1                 
1 51013U 22002AF  22323.48321367  .00008667  00000+0  44351-3 0  9998
2 51013  97.4633  27.9124 0007908 242.7637 242.0965 15.16838983 46891
TEVEL-7                 
1 51062U 22002CG  22323.69464008  .00008503  00000+0  43553-3 0  9997
2 51062  97.4657  28.1694 0007997 240.3023 276.5306 15.16813294 46920
TEVEL-4                 
1 51063U 22002CH  22323.55530904  .00008641  00000+0  44271-3 0  9993
2 51063  97.4646  28.0270 0008130 241.2743 226.7256 15.16795719 46907
TEVEL-2                 
1 51069U 22002CP  22323.48016068  .00008696  00000+0  44468-3 0  9999
2 51069  97.4637  27.9228 0008072 242.8394 242.9403 15.16863750 46891
GREENCUBE               
1 53106U 22080B   22323.09002148 -.00000003  00000+0  00000+0 0  9995
2 53106  70.1752  32.7128 0008932 231.1104 128.8759  6.42557452  8251
YUZGU 9 (RS3S)          
1 53308U 98067TT  22323.87981455  .00094508  00000+0  90541-3 0  9995
2 53308  51.6364 279.9587 0008502  97.7485 262.4476 15.65843895 18945
YUZGU 7 (RS1S)          
1 53309U 98067TU  22323.80013495  .00101017  00000+0  94709-3 0  9993
2 53309  51.6360 280.1714 0008894 101.5128 258.6867 15.66348589 18885
YUZGU 11 (RS5S)         
1 53310U 98067TV  22323.87862563  .00093541  00000+0  89563-3 0  9994
2 53310  51.6361 279.9503 0008557 101.0578 259.1380 15.65862165 18921
YUZGU 12 (RS6S)         
1 53311U 98067TW  22323.78356188  .00106666  00000+0  97805-3 0  9997
2 53311  51.6357 280.0599 0008604  96.1069 264.0908 15.66879217 18936
TSIOLKOVSKY-RYAZAN 1 (*)
1 53312U 98067TX  22323.80006019  .00093042  00000+0  88323-3 0  9994
2 53312  51.6364 280.1770 0008907 102.3396 257.8598 15.66075048 18874
TSIOLKOVSKY-RYAZAN 2 (*)
1 53313U 98067TY  22323.86109976  .00099204  00000+0  93318-3 0  9993
2 53313  51.6367 279.8350 0008479 103.0392 257.1551 15.66278749 18937
YUZGU 10 (RS4S)         
1 53321U 98067TZ  22323.87308347  .00095060  00000+0  90044-3 0  9995
2 53321  51.6363 279.9137 0008665  99.6237 260.5738 15.66122125 18932
RS29S (SXC3-2110 CYCLO*)
1 53373U 22096D   22323.52779228  .00012124  00000+0  46101-3 0  9998
2 53373  97.4277 224.3127 0002259 107.7033  19.0232 15.26926014 15581
RS32S (SXC3-212 MONITO*)
1 53374U 22096E   22323.52032699  .00011662  00000+0  44245-3 0  9996
2 53374  97.4268 224.3179 0002631 104.6475  20.7564 15.27009324 15583
RS34S (SXC3-218 KUZBAS*)
1 53375U 22096F   22323.71252657  .00009850  00000+0  37834-3 0  9998
2 53375  97.4273 224.4910 0002628 113.5591 299.5102 15.26645624 15614
RS23S (SXC3-21 UTMN)    
1 53376U 22096G   22323.52656542  .00010308  00000+0  39503-3 0  9994
2 53376  97.4275 224.3122 0002691 110.4344  14.7479 15.26706166 15582
RS28S (SXC3-214 MIET-A*)
1 53377U 22096H   22323.70448098  .00009281  00000+0  35644-3 0  9990
2 53377  97.4272 224.4925 0002678 110.0559 278.4029 15.26665797 15619
RS26S (KAI-1)           
1 53378U 22096J   22323.52880964  .00008652  00000+0  33425-3 0  9999
2 53378  97.4276 224.3093 0002824 107.0095  18.1025 15.26491792 15586
RS19S (SXC3-219 ISOI)   
1 53381U 22096M   22323.68411282  .00009555  00000+0  36115-3 0  9995
2 53381  97.4274 224.5430 0006257  85.9701   0.1844 15.27172250 15617
RS21S (CUBESX-HSE-2)    
1 53383U 22096P   22323.67637646  .00009868  00000+0  37241-3 0  9998
2 53383  97.4279 224.5438 0006494  84.7489 333.8395 15.27213102 15614
RS30S (SXC3-217 SIREN)  
1 53384U 22096Q   22323.67781538  .00008966  00000+0  34001-3 0  9998
2 53384  97.4278 224.5387 0006481  84.4121 332.5966 15.27080607 15615
RS20S (GEOSCAN-EDELVEIS)
1 53385U 22096R   22323.65658572  .00012443  00000+0  45927-3 0  9992
2 53385  97.4269 224.5778 0006966  82.5341   3.1075 15.27884367 15641
RS33S (SXC3-215 VIZARD) 
1 53386U 22096S   22323.56945781  .00014612  00000+0  52679-3 0  9996
2 53386  97.4266 224.5559 0007903  83.1828  37.2919 15.28612660 15624
CUTE-1 (CO-55)          
1 27844U 03031E   22323.73488226  .00000274  00000+0  14234-3 0  9993
2 27844  98.6801 329.0964 0010126  18.6742 341.4806 14.22542464  5959
CUBESAT XI-IV (CO-57)   
1 27848U 03031J   22323.74677556  .00000234  00000+0  12523-3 0  9999
2 27848  98.6843 329.5919 0010277  32.6452 327.5359 14.22086922  5731
